POEM-2                  
1 56308U 23057A   26068.98468983  .00003020  00000+0  20743-3 0  9999
2 56308   9.8873 262.7521 0021373 321.9306  37.9396 14.94660083157397
2025-274D               
1 66653U 25274D   26068.72493999  .00002576  00000+0  25672-3 0  9994
2 66653  97.7437 359.4086 0012011 332.7011  27.3575 14.92403662 15374
